start=new Date('2021-11-16T00:00:00.000Z').valueOf();
sats=[{"DECAY_DATE":null,"ECCENTRICITY":"0.00016220","ELEMENT_SET_NO":"999","OBJECT_TYPE":"PAYLOAD","BSTAR":"-0.00003516400000","INCLINATION":"53.0531","EPOCH":"2021-11-15T20:10:10.217856","GP_ID":"189816400","LAUNCH_DATE":"2020-08-18","OBJECT_ID":"2020-057L","TIME_SYSTEM":"UTC","TLE_LINE1":"1 46127U 20057L   21319.84039604 -.00000805  00000-0 -35164-4 0  9992","TLE_LINE2":"2 46127  53.0531 166.3974 0001622  70.2384 289.8780 15.06389241 69646","CENTER_NAME":"EARTH","REV_AT_EPOCH":"6964","RCS_SIZE":"LARGE","FILE":"3215903","MEAN_MOTION_DDOT":"0.0000000000000","COUNTRY_CODE":"US","SITE":"AFETR","MEAN_ANOMALY":"289.8780","MEAN_ELEMENT_THEORY":"SGP4","RA_OF_ASC_NODE":"166.3974","ARG_OF_PERICENTER":"70.2384","APOAPSIS":"548.370","REF_FRAME":"TEME","OBJECT_NAME":"STARLINK-1621","EPHEMERIS_TYPE":"0","PERIAPSIS":"546.123","PERIOD":"95.593","CLASSIFICATION_TYPE":"U","NORAD_CAT_ID":"46127","MEAN_MOTION_DOT":"-0.00000805","SEMIMAJOR_AXIS":"6925.382","MEAN_MOTION":"15.06389241"},{"CENTER_NAME":"EARTH","REV_AT_EPOCH":"6925","TLE_LINE1":"1 46128U 20057M   21319.80171243  .00000136  00000-0  28022-4 0  9995","TLE_LINE2":"2 46128  53.0542 146.5733 0001584  67.9962 292.1196 15.06386766 69258","OBJECT_ID":"2020-057M","TIME_SYSTEM":"UTC","LAUNCH_DATE":"2020-08-18","GP_ID":"189836587","OBJECT_TYPE":"PAYLOAD","BSTAR":"0.00002802200000","INCLINATION":"53.0542","EPOCH":"2021-11-15T19:14:27.953952","DECAY_DATE":null,"ECCENTRICITY":"0.00015840","ELEMENT_SET_NO":"999","MEAN_MOTION":"15.06386766","NORAD_CAT_ID":"46128","PERIOD":"95.593","CLASSIFICATION_TYPE":"U","MEAN_MOTION_DOT":"0.00000136","SEMIMAJOR_AXIS":"6925.389","OBJECT_NAME":"STARLINK-1622","EPHEMERIS_TYPE":"0","PERIAPSIS":"546.157","REF_FRAME":"TEME","APOAPSIS":"548.351","COUNTRY_CODE":"US","MEAN_ELEMENT_THEORY":"SGP4","SITE":"AFETR","MEAN_ANOMALY":"292.1196","RA_OF_ASC_NODE":"146.5733","ARG_OF_PERICENTER":"67.9962","FILE":"3215928","MEAN_MOTION_DDOT":"0.0000000000000","RCS_SIZE":"LARGE"},{"REF_FRAME":"TEME","EPHEMERIS_TYPE":"0","OBJECT_NAME":"STARLINK-1623","PERIAPSIS":"546.065","PERIOD":"95.592","NORAD_CAT_ID":"46129","CLASSIFICATION_TYPE":"U","MEAN_MOTION_DOT":"0.00000641","SEMIMAJOR_AXIS":"6925.361","MEAN_MOTION":"15.06395941","RCS_SIZE":"LARGE","FILE":"3215928","MEAN_MOTION_DDOT":"0.0000000000000","COUNTRY_CODE":"US","MEAN_ELEMENT_THEORY":"SGP4","SITE":"AFETR","MEAN_ANOMALY":"279.4086","RA_OF_ASC_NODE":"146.0922","ARG_OF_PERICENTER":"80.7092","APOAPSIS":"548.387","LAUNCH_DATE":"2020-08-18","TIME_SYSTEM":"UTC","OBJECT_ID":"2020-057N","TLE_LINE1":"1 46129U 20057N   21319.90858994  .00000641  00000-0  61937-4 0  9995","TLE_LINE2":"2 46129  53.0541 146.0922 0001676  80.7092 279.4086 15.06395941 69275","CENTER_NAME":"EARTH","REV_AT_EPOCH":"6927","DECAY_DATE":null,"ECCENTRICITY":"0.00016760","ELEMENT_SET_NO":"999","BSTAR":"0.00006193700000","OBJECT_TYPE":"PAYLOAD","EPOCH":"2021-11-15T21:48:22.170816","INCLINATION":"53.0541","GP_ID":"189835335"},{"LAUNCH_DATE":"2020-08-18","OBJECT_ID":"2020-057P","TIME_SYSTEM":"UTC","TLE_LINE1":"1 46130U 20057P   21319.87541830 -.00000456  00000-0 -11701-4 0  9991","TLE_LINE2":"2 46130  53.0534 146.2358 0001570  77.7241 282.3924 15.06404584 70516","CENTER_NAME":"EARTH","REV_AT_EPOCH":"7051","DECAY_DATE":null,"ECCENTRICITY":"0.00015700","ELEMENT_SET_NO":"999","BSTAR":"-0.00001170100000","OBJECT_TYPE":"PAYLOAD","INCLINATION":"53.0534","EPOCH":"2021-11-15T21:00:36.141120","GP_ID":"189835585","REF_FRAME":"TEME","OBJECT_NAME":"STARLINK-1624","EPHEMERIS_TYPE":"0","PERIAPSIS":"546.112","PERIOD":"95.592","NORAD_CAT_ID":"46130","CLASSIFICATION_TYPE":"U","MEAN_MOTION_DOT":"-0.00000456","SEMIMAJOR_AXIS":"6925.335","MEAN_MOTION":"15.06404584","RCS_SIZE":"LARGE","FILE":"3215928","MEAN_MOTION_DDOT":"0.0000000000000","COUNTRY_CODE":"US","MEAN_ELEMENT_THEORY":"SGP4","SITE":"AFETR","MEAN_ANOMALY":"282.3924","RA_OF_ASC_NODE":"146.2358","ARG_OF_PERICENTER":"77.7241","APOAPSIS":"548.287"},{"OBJECT_ID":"2020-057Q","TIME_SYSTEM":"UTC","LAUNCH_DATE":"2020-08-18","REV_AT_EPOCH":"7024","CENTER_NAME":"EARTH","TLE_LINE1":"1 46131U 20057Q   21319.88832047 -.00000524  00000-0 -16280-4 0  9999","TLE_LINE2":"2 46131  53.0541 166.1843 0001698  77.0762 283.0416 15.06391444 70241","OBJECT_TYPE":"PAYLOAD","BSTAR":"-0.00001628000000","INCLINATION":"53.0541","EPOCH":"2021-11-15T21:19:10.888608","ELEMENT_SET_NO":"999","DECAY_DATE":null,"ECCENTRICITY":"0.00016980","GP_ID":"189836836","PERIAPSIS":"546.064","EPHEMERIS_TYPE":"0","OBJECT_NAME":"STARLINK-1625","REF_FRAME":"TEME","MEAN_MOTION":"15.06391444","SEMIMAJOR_AXIS":"6925.375","PERIOD":"95.593","NORAD_CAT_ID":"46131","CLASSIFICATION_TYPE":"U","MEAN_MOTION_DOT":"-0.00000524","FILE":"3215928","MEAN_MOTION_DDOT":"0.0000000000000","RCS_SIZE":"LARGE","APOAPSIS":"548.416","RA_OF_ASC_NODE":"166.1843","ARG_OF_PERICENTER":"77.0762","COUNTRY_CODE":"US","MEAN_ANOMALY":"283.0416","SITE":"AFETR","MEAN_ELEMENT_THEORY":"SGP4"},{"OBJECT_ID":"2020-057R","TIME_SYSTEM":"UTC","LAUNCH_DATE":"2020-08-18","CENTER_NAME":"EARTH","REV_AT_EPOCH":"6997","TLE_LINE1":"1 46132U 20057R   21319.92700944  .00001080  00000-0  91378-4 0  9992","TLE_LINE2":"2 46132  53.0539 186.0077 0001678  73.8943 286.2230 15.06401241 69976","BSTAR":"0.00009137800000","OBJECT_TYPE":"PAYLOAD","EPOCH":"2021-11-15T22:14:53.615616","INCLINATION":"53.0539","DECAY_DATE":null,"ECCENTRICITY":"0.00016780","ELEMENT_SET_NO":"999","GP_ID":"189837087","OBJECT_NAME":"STARLINK-1630","EPHEMERIS_TYPE":"0","PERIAPSIS":"546.048","REF_FRAME":"TEME","MEAN_MOTION":"15.06401241","PERIOD":"95.592","CLASSIFICATION_TYPE":"U","NORAD_CAT_ID":"46132","MEAN_MOTION_DOT":"0.00001080","SEMIMAJOR_AXIS":"6925.345","FILE":"3215928","MEAN_MOTION_DDOT":"0.0000000000000","RCS_SIZE":"LARGE","APOAPSIS":"548.372","COUNTRY_CODE":"US","SITE":"AFETR","MEAN_ELEMENT_THEORY":"SGP4","MEAN_ANOMALY":"286.2230","RA_OF_ASC_NODE":"186.0077","ARG_OF_PERICENTER":"73.8943"},{"RCS_SIZE":"LARGE","MEAN_MOTION_DDOT":"0.0000000000000","FILE":"3215928","SITE":"AFETR","MEAN_ANOMALY":"276.6263","MEAN_ELEMENT_THEORY":"SGP4","COUNTRY_CODE":"US","ARG_OF_PERICENTER":"83.4920","RA_OF_ASC_NODE":"146.0054","APOAPSIS":"548.430","REF_FRAME":"TEME","OBJECT_NAME":"STARLINK-1637","EPHEMERIS_TYPE":"0","PERIAPSIS":"546.069","MEAN_MOTION_DOT":"0.00000514","PERIOD":"95.593","CLASSIFICATION_TYPE":"U","NORAD_CAT_ID":"46133","SEMIMAJOR_AXIS":"6925.385","MEAN_MOTION":"15.06388243","ECCENTRICITY":"0.00017050","DECAY_DATE":null,"ELEMENT_SET_NO":"999","EPOCH":"2021-11-15T22:14:54.286080","INCLINATION":"53.0524","OBJECT_TYPE":"PAYLOAD","BSTAR":"0.00005343000000","GP_ID":"189835835","LAUNCH_DATE":"2020-08-18","OBJECT_ID":"2020-057S","TIME_SYSTEM":"UTC","TLE_LINE2":"2 46133  53.0524 146.0054 0001705  83.4920 276.6263 15.06388243 70523","TLE_LINE1":"1 46133U 20057S   21319.92701720  .00000514  00000-0  53430-4 0  9994","CENTER_NAME":"EARTH","REV_AT_EPOCH":"7052"},{"EPHEMERIS_TYPE":"0","OBJECT_NAME":"STARLINK-1638","PERIAPSIS":"546.108","REF_FRAME":"TEME","MEAN_MOTION":"15.06394503","PERIOD":"95.592","CLASSIFICATION_TYPE":"U","NORAD_CAT_ID":"46134","MEAN_MOTION_DOT":"-0.00000989","SEMIMAJOR_AXIS":"6925.365","FILE":"3215928","MEAN_MOTION_DDOT":"0.0000000000000","RCS_SIZE":"LARGE","APOAPSIS":"548.352","COUNTRY_CODE":"US","MEAN_ANOMALY":"280.8998","SITE":"AFETR","MEAN_ELEMENT_THEORY":"SGP4","RA_OF_ASC_NODE":"146.5881","ARG_OF_PERICENTER":"79.2173","TIME_SYSTEM":"UTC","OBJECT_ID":"2020-057T","LAUNCH_DATE":"2020-08-18","CENTER_NAME":"EARTH","REV_AT_EPOCH":"6925","TLE_LINE1":"1 46134U 20057T   21319.79800369 -.00000989  00000-0 -47514-4 0  9993","TLE_LINE2":"2 46134  53.0522 146.5881 0001620  79.2173 280.8998 15.06394503 69250","OBJECT_TYPE":"PAYLOAD","BSTAR":"-0.00004751400000","INCLINATION":"53.0522","EPOCH":"2021-11-15T19:09:07.518816","DECAY_DATE":null,"ECCENTRICITY":"0.00016200","ELEMENT_SET_NO":"999","GP_ID":"189836085"},{"APOAPSIS":"548.315","ARG_OF_PERICENTER":"74.0175","RA_OF_ASC_NODE":"146.2175","SITE":"AFETR","MEAN_ANOMALY":"286.0988","MEAN_ELEMENT_THEORY":"SGP4","COUNTRY_CODE":"US","MEAN_MOTION_DDOT":"0.0000000000000","FILE":"3215928","RCS_SIZE":"LARGE","MEAN_MOTION":"15.06397348","SEMIMAJOR_AXIS":"6925.357","MEAN_MOTION_DOT":"-0.00001155","NORAD_CAT_ID":"46135","PERIOD":"95.592","CLASSIFICATION_TYPE":"U","PERIAPSIS":"546.129","EPHEMERIS_TYPE":"0","OBJECT_NAME":"STARLINK-1639","REF_FRAME":"TEME","GP_ID":"189836337","INCLINATION":"53.0535","EPOCH":"2021-11-15T21:05:53.805408","BSTAR":"-0.00005866100000","OBJECT_TYPE":"PAYLOAD","ELEMENT_SET_NO":"999","ECCENTRICITY":"0.00015780","DECAY_DATE":null,"REV_AT_EPOCH":"6926","CENTER_NAME":"EARTH","TLE_LINE2":"2 46135  53.0535 146.2175 0001578  74.0175 286.0988 15.06397348 69263","TLE_LINE1":"1 46135U 20057U   21319.87909497 -.00001155  00000-0 -58661-4 0  9996","OBJECT_ID":"2020-057U","TIME_SYSTEM":"UTC","LAUNCH_DATE":"2020-08-18"},{"MEAN_MOTION_DDOT":"0.0000000000000","FILE":"3215928","RCS_SIZE":"LARGE","APOAPSIS":"548.591","SITE":"AFETR","MEAN_ANOMALY":"286.7635","MEAN_ELEMENT_THEORY":"SGP4","COUNTRY_CODE":"US","ARG_OF_PERICENTER":"73.3572","RA_OF_ASC_NODE":"176.0068","OBJECT_NAME":"STARLINK-1643","EPHEMERIS_TYPE":"0","PERIAPSIS":"545.840","REF_FRAME":"TEME","MEAN_MOTION":"15.06399247","MEAN_MOTION_DOT":"-0.00000337","PERIOD":"95.592","CLASSIFICATION_TYPE":"U","NORAD_CAT_ID":"46136","SEMIMAJOR_AXIS":"6925.351","INCLINATION":"53.0528","EPOCH":"2021-11-15T22:16:13.722240","OBJECT_TYPE":"PAYLOAD","BSTAR":"-0.00000372640000","ECCENTRICITY":"0.00019860","DECAY_DATE":null,"ELEMENT_SET_NO":"999","GP_ID":"189836588","OBJECT_ID":"2020-057V","TIME_SYSTEM":"UTC","LAUNCH_DATE":"2020-08-18","CENTER_NAME":"EARTH","REV_AT_EPOCH":"6885","TLE_LINE2":"2 46136  53.0528 176.0068 0001986  73.3572 286.7635 15.06399247 68854","TLE_LINE1":"1 46136U 20057V   21319.92793660 -.00000337  00000-0 -37264-5 0  9994"}];
